[{"OBJECT_NAME":"HYPSO-2","OBJECT_ID":"2024-149BR","EPOCH":"2026-03-09T15:24:17.277696","MEAN_MOTION":14.98259029,"ECCENTRICITY":0.00013898,"INCLINATION":97.6894,"RA_OF_ASC_NODE":146.3679,"ARG_OF_PERICENTER":74.8032,"MEAN_ANOMALY":285.3344,"EPHEMERIS_TYPE":0,"CLASSIFICATION_TYPE":"U","NORAD_CAT_ID":60531,"ELEMENT_SET_NO":999,"REV_AT_EPOCH":8514,"BSTAR":0.00033979817,"MEAN_MOTION_DOT":3.981e-5,"MEAN_MOTION_DDOT":0},{"OBJECT_NAME":"COSMOS 2251 DEB","OBJECT_ID":"1993-036APM","EPOCH":"2026-03-04T21:32:54.192480","MEAN_MOTION":14.96947229,"ECCENTRICITY":0.00350755,"INCLINATION":73.891,"RA_OF_ASC_NODE":257.2416,"ARG_OF_PERICENTER":202.261,"MEAN_ANOMALY":157.7054,"EPHEMERIS_TYPE":0,"CLASSIFICATION_TYPE":"U","NORAD_CAT_ID":35670,"ELEMENT_SET_NO":999,"REV_AT_EPOCH":88955,"BSTAR":0.0015922685,"MEAN_MOTION_DOT":0.00018541,"MEAN_MOTION_DDOT":0}]
